[{"OBJECT_NAME":"STARLINK-31693","OBJECT_ID":"2024-065W","EPOCH":"2026-03-09T20:24:38.718432","MEAN_MOTION":15.301892,"ECCENTRICITY":0.00011987,"INCLINATION":53.16,"RA_OF_ASC_NODE":280.9499,"ARG_OF_PERICENTER":88.9277,"MEAN_ANOMALY":271.1861,"EPHEMERIS_TYPE":0,"CLASSIFICATION_TYPE":"U","NORAD_CAT_ID":59441,"ELEMENT_SET_NO":999,"REV_AT_EPOCH":10895,"BSTAR":1.784999e-5,"MEAN_MOTION_DOT":1.69e-6,"MEAN_MOTION_DDOT":0},{"OBJECT_NAME":"OBJECT H","OBJECT_ID":"2022-023H","EPOCH":"2026-03-09T22:57:41.313888","MEAN_MOTION":15.21889274,"ECCENTRICITY":0.00933376,"INCLINATION":63.6345,"RA_OF_ASC_NODE":356.5929,"ARG_OF_PERICENTER":305.1945,"MEAN_ANOMALY":54.0457,"EPHEMERIS_TYPE":0,"CLASSIFICATION_TYPE":"U","NORAD_CAT_ID":51953,"ELEMENT_SET_NO":999,"REV_AT_EPOCH":22114,"BSTAR":0.00043867493,"MEAN_MOTION_DOT":0.00011084,"MEAN_MOTION_DDOT":0}]
